STARLINK-1807           
1 46706U 20073AN  25325.08882106  .00035025  00000+0  18331-2 0  9997
2 46706  53.0512   5.5680 0001885 235.5961 124.4853 15.15533920280818
STARLINK-1810           
1 46709U 20073AR  25325.16668980  .00063972  00000+0  35985-2 0  9997
2 46709  53.0553  23.2376 0001094  97.5020 281.7852 15.12683178  5784
STARLINK-1814           
1 46712U 20073AU  25325.10391473  .00106955  00000+0  22901-2 0  9998
2 46712  53.0524 357.6428 0011189 355.9350   4.1562 15.43901623280929
STARLINK-1815           
1 46713U 20073AV  25325.09833730  .00082064  00000+0  22658-2 0  9997
2 46713  53.0549   3.8349 0007310  17.7338 342.3918 15.36355580280838
STARLINK-1816           
1 46714U 20073AW  25325.11134380  .00094701  00000+0  23032-2 0  9994
2 46714  53.0558   4.0183 0004000  36.2862 323.8413 15.40200813280836
STARLINK-1817           
1 46715U 20073AX  25325.11765446 -.00003327  00000+0 -20475-3 0  9993
2 46715  53.0553   9.0170 0001282  88.7299 271.3837 15.06371353280767
STARLINK-1820           
1 46717U 20073AZ  25325.02753701  .00122847  00000+0  24985-2 0  9992
2 46717  53.0541 334.6899 0009622 327.7290  32.3127 15.45356705281242
STARLINK-1821           
1 46718U 20073BA  25325.12693866  .00030073  00000+0  12182-2 0  9994
2 46718  53.0590  12.2611 0000779  53.4144 306.6925 15.24442389280729
STARLINK-1826           
1 46723U 20073BF  25325.05817619  .00074317  00000+0  22265-2 0  9998
2 46723  53.0555 339.6775 0005075  42.8445 317.2950 15.33851135281172
STARLINK-1828           
1 46725U 20073BH  25324.56889083  .00004520  00000+0  32207-3 0  9996
2 46725  53.0560  26.4801 0001318  90.3072 269.8068 15.06407800280471
STARLINK-1830           
1 46727U 20073BK  25325.14391453  .00079150  00000+0  24684-2 0  9992
2 46727  53.0537 338.9573 0007423  29.2045 330.9369 15.32533529281199
STARLINK-1848           
1 46740U 20074B   25325.16668980  .00206937  00000+0  32818-2 0  9995
2 46740  53.0479  70.6668 0005366 196.8990  47.9750 15.52148311  5880
STARLINK-1892           
1 46743U 20074E   25325.00002315  .00036297  00000+0  12665-2 0  9993
2 46743  53.0539  86.1443 0002889   1.3450  29.4156 15.29286974  5800
STARLINK-1894           
1 46744U 20074F   25325.16668980  .00162479  00000+0  37004-2 0  9993
2 46744  53.0543  84.0276 0003726 343.8779 106.6295 15.41863234  5767
STARLINK-1905           
1 46746U 20074H   25325.16668980  .00146169  00000+0  38426-2 0  9992
2 46746  53.0537  83.8966 0003441 325.2481 114.8369 15.37567530  5840
STARLINK-1911           
1 46749U 20074L   25324.74733341  .00032328  00000+0  71518-3 0  9993
2 46749  53.0554  85.7430 0003131 355.4206   4.6770 15.43544061280326
STARLINK-1922           
1 46753U 20074Q   25325.16668980  .00143840  00000+0  38034-2 0  9998
2 46753  53.0542  84.2580 0004070 341.2681  75.6629 15.37397362  5780
