[{"OBJECT_NAME":"STARLINK-1807","OBJECT_ID":"2020-073AN","EPOCH":"2025-11-21T02:07:54.139584","MEAN_MOTION":15.1553392,"ECCENTRICITY":0.0001885,"INCLINATION":53.0512,"RA_OF_ASC_NODE":5.568,"ARG_OF_PERICENTER":235.5961,"MEAN_ANOMALY":124.4853,"EPHEMERIS_TYPE":0,"CLASSIFICATION_TYPE":"U","NORAD_CAT_ID":46706,"ELEMENT_SET_NO":999,"REV_AT_EPOCH":28081,"BSTAR":0.0018331,"MEAN_MOTION_DOT":0.00035025,"MEAN_MOTION_DDOT":0},{"OBJECT_NAME":"STARLINK-1810","OBJECT_ID":"2020-073AR","EPOCH":"2025-11-21T04:00:01.998720","MEAN_MOTION":15.12683178,"ECCENTRICITY":0.0001094,"INCLINATION":53.0553,"RA_OF_ASC_NODE":23.2376,"ARG_OF_PERICENTER":97.502,"MEAN_ANOMALY":281.7852,"EPHEMERIS_TYPE":0,"CLASSIFICATION_TYPE":"U","NORAD_CAT_ID":46709,"ELEMENT_SET_NO":999,"REV_AT_EPOCH":578,"BSTAR":0.0035985,"MEAN_MOTION_DOT":0.00063972,"MEAN_MOTION_DDOT":0},{"OBJECT_NAME":"STARLINK-1814","OBJECT_ID":"2020-073AU","EPOCH":"2025-11-21T02:29:38.232672","MEAN_MOTION":15.43901623,"ECCENTRICITY":0.0011189,"INCLINATION":53.0524,"RA_OF_ASC_NODE":357.6428,"ARG_OF_PERICENTER":355.935,"MEAN_ANOMALY":4.1562,"EPHEMERIS_TYPE":0,"CLASSIFICATION_TYPE":"U","NORAD_CAT_ID":46712,"ELEMENT_SET_NO":999,"REV_AT_EPOCH":28092,"BSTAR":0.0022901,"MEAN_MOTION_DOT":0.00106955,"MEAN_MOTION_DDOT":0},{"OBJECT_NAME":"STARLINK-1815","OBJECT_ID":"2020-073AV","EPOCH":"2025-11-21T02:21:36.342720","MEAN_MOTION":15.3635558,"ECCENTRICITY":0.000731,"INCLINATION":53.0549,"RA_OF_ASC_NODE":3.8349,"ARG_OF_PERICENTER":17.7338,"MEAN_ANOMALY":342.3918,"EPHEMERIS_TYPE":0,"CLASSIFICATION_TYPE":"U","NORAD_CAT_ID":46713,"ELEMENT_SET_NO":999,"REV_AT_EPOCH":28083,"BSTAR":0.0022658,"MEAN_MOTION_DOT":0.00082064,"MEAN_MOTION_DDOT":0},{"OBJECT_NAME":"STARLINK-1816","OBJECT_ID":"2020-073AW","EPOCH":"2025-11-21T02:40:20.104320","MEAN_MOTION":15.40200813,"ECCENTRICITY":0.0004,"INCLINATION":53.0558,"RA_OF_ASC_NODE":4.0183,"ARG_OF_PERICENTER":36.2862,"MEAN_ANOMALY":323.8413,"EPHEMERIS_TYPE":0,"CLASSIFICATION_TYPE":"U","NORAD_CAT_ID":46714,"ELEMENT_SET_NO":999,"REV_AT_EPOCH":28083,"BSTAR":0.0023032,"MEAN_MOTION_DOT":0.00094701,"MEAN_MOTION_DDOT":0},{"OBJECT_NAME":"STARLINK-1817","OBJECT_ID":"2020-073AX","EPOCH":"2025-11-21T02:49:25.345344","MEAN_MOTION":15.06371353,"ECCENTRICITY":0.0001282,"INCLINATION":53.0553,"RA_OF_ASC_NODE":9.017,"ARG_OF_PERICENTER":88.7299,"MEAN_ANOMALY":271.3837,"EPHEMERIS_TYPE":0,"CLASSIFICATION_TYPE":"U","NORAD_CAT_ID":46715,"ELEMENT_SET_NO":999,"REV_AT_EPOCH":28076,"BSTAR":-0.00020475,"MEAN_MOTION_DOT":-3.327e-5,"MEAN_MOTION_DDOT":0},{"OBJECT_NAME":"STARLINK-1820","OBJECT_ID":"2020-073AZ","EPOCH":"2025-11-21T00:39:39.197664","MEAN_MOTION":15.45356705,"ECCENTRICITY":0.0009622,"INCLINATION":53.0541,"RA_OF_ASC_NODE":334.6899,"ARG_OF_PERICENTER":327.729,"MEAN_ANOMALY":32.3127,"EPHEMERIS_TYPE":0,"CLASSIFICATION_TYPE":"U","NORAD_CAT_ID":46717,"ELEMENT_SET_NO":999,"REV_AT_EPOCH":28124,"BSTAR":0.0024985,"MEAN_MOTION_DOT":0.00122847,"MEAN_MOTION_DDOT":0},{"OBJECT_NAME":"STARLINK-1821","OBJECT_ID":"2020-073BA","EPOCH":"2025-11-21T03:02:47.500224","MEAN_MOTION":15.24442389,"ECCENTRICITY":7.79e-5,"INCLINATION":53.059,"RA_OF_ASC_NODE":12.2611,"ARG_OF_PERICENTER":53.4144,"MEAN_ANOMALY":306.6925,"EPHEMERIS_TYPE":0,"CLASSIFICATION_TYPE":"U","NORAD_CAT_ID":46718,"ELEMENT_SET_NO":999,"REV_AT_EPOCH":28072,"BSTAR":0.0012182,"MEAN_MOTION_DOT":0.00030073,"MEAN_MOTION_DDOT":0},{"OBJECT_NAME":"STARLINK-1826","OBJECT_ID":"2020-073BF","EPOCH":"2025-11-21T01:23:46.422816","MEAN_MOTION":15.33851135,"ECCENTRICITY":0.0005075,"INCLINATION":53.0555,"RA_OF_ASC_NODE":339.6775,"ARG_OF_PERICENTER":42.8445,"MEAN_ANOMALY":317.295,"EPHEMERIS_TYPE":0,"CLASSIFICATION_TYPE":"U","NORAD_CAT_ID":46723,"ELEMENT_SET_NO":999,"REV_AT_EPOCH":28117,"BSTAR":0.0022265,"MEAN_MOTION_DOT":0.00074317,"MEAN_MOTION_DDOT":0},{"OBJECT_NAME":"STARLINK-1828","OBJECT_ID":"2020-073BH","EPOCH":"2025-11-20T13:39:12.167712","MEAN_MOTION":15.064078,"ECCENTRICITY":0.00013181,"INCLINATION":53.056,"RA_OF_ASC_NODE":26.4801,"ARG_OF_PERICENTER":90.3072,"MEAN_ANOMALY":269.8068,"EPHEMERIS_TYPE":0,"CLASSIFICATION_TYPE":"U","NORAD_CAT_ID":46725,"ELEMENT_SET_NO":999,"REV_AT_EPOCH":28047,"BSTAR":0.00032207186,"MEAN_MOTION_DOT":4.52e-5,"MEAN_MOTION_DDOT":0},{"OBJECT_NAME":"STARLINK-1830","OBJECT_ID":"2020-073BK","EPOCH":"2025-11-21T03:27:14.215392","MEAN_MOTION":15.32533529,"ECCENTRICITY":0.0007423,"INCLINATION":53.0537,"RA_OF_ASC_NODE":338.9573,"ARG_OF_PERICENTER":29.2045,"MEAN_ANOMALY":330.9369,"EPHEMERIS_TYPE":0,"CLASSIFICATION_TYPE":"U","NORAD_CAT_ID":46727,"ELEMENT_SET_NO":999,"REV_AT_EPOCH":28119,"BSTAR":0.0024684,"MEAN_MOTION_DOT":0.0007915,"MEAN_MOTION_DDOT":0},{"OBJECT_NAME":"STARLINK-1848","OBJECT_ID":"2020-074B","EPOCH":"2025-11-21T04:00:01.998720","MEAN_MOTION":15.52148311,"ECCENTRICITY":0.0005366,"INCLINATION":53.0479,"RA_OF_ASC_NODE":70.6668,"ARG_OF_PERICENTER":196.899,"MEAN_ANOMALY":47.975,"EPHEMERIS_TYPE":0,"CLASSIFICATION_TYPE":"U","NORAD_CAT_ID":46740,"ELEMENT_SET_NO":999,"REV_AT_EPOCH":588,"BSTAR":0.0032818,"MEAN_MOTION_DOT":0.00206937,"MEAN_MOTION_DDOT":0},{"OBJECT_NAME":"STARLINK-1892","OBJECT_ID":"2020-074E","EPOCH":"2025-11-21T00:00:02.000160","MEAN_MOTION":15.29286974,"ECCENTRICITY":0.0002889,"INCLINATION":53.0539,"RA_OF_ASC_NODE":86.1443,"ARG_OF_PERICENTER":1.345,"MEAN_ANOMALY":29.4156,"EPHEMERIS_TYPE":0,"CLASSIFICATION_TYPE":"U","NORAD_CAT_ID":46743,"ELEMENT_SET_NO":999,"REV_AT_EPOCH":580,"BSTAR":0.0012665401,"MEAN_MOTION_DOT":0.00036297,"MEAN_MOTION_DDOT":0},{"OBJECT_NAME":"STARLINK-1894","OBJECT_ID":"2020-074F","EPOCH":"2025-11-21T04:00:01.998720","MEAN_MOTION":15.41863234,"ECCENTRICITY":0.0003726,"INCLINATION":53.0543,"RA_OF_ASC_NODE":84.0276,"ARG_OF_PERICENTER":343.8779,"MEAN_ANOMALY":106.6295,"EPHEMERIS_TYPE":0,"CLASSIFICATION_TYPE":"U","NORAD_CAT_ID":46744,"ELEMENT_SET_NO":999,"REV_AT_EPOCH":576,"BSTAR":0.0037004,"MEAN_MOTION_DOT":0.00162479,"MEAN_MOTION_DDOT":0},{"OBJECT_NAME":"STARLINK-1905","OBJECT_ID":"2020-074H","EPOCH":"2025-11-21T04:00:01.998720","MEAN_MOTION":15.3756753,"ECCENTRICITY":0.0003441,"INCLINATION":53.0537,"RA_OF_ASC_NODE":83.8966,"ARG_OF_PERICENTER":325.2481,"MEAN_ANOMALY":114.8369,"EPHEMERIS_TYPE":0,"CLASSIFICATION_TYPE":"U","NORAD_CAT_ID":46746,"ELEMENT_SET_NO":999,"REV_AT_EPOCH":584,"BSTAR":0.0038426,"MEAN_MOTION_DOT":0.00146169,"MEAN_MOTION_DDOT":0},{"OBJECT_NAME":"STARLINK-1911","OBJECT_ID":"2020-074L","EPOCH":"2025-11-20T17:56:09.606624","MEAN_MOTION":15.43544061,"ECCENTRICITY":0.00031316,"INCLINATION":53.0554,"RA_OF_ASC_NODE":85.743,"ARG_OF_PERICENTER":355.4206,"MEAN_ANOMALY":4.677,"EPHEMERIS_TYPE":0,"CLASSIFICATION_TYPE":"U","NORAD_CAT_ID":46749,"ELEMENT_SET_NO":999,"REV_AT_EPOCH":28032,"BSTAR":0.00071518088,"MEAN_MOTION_DOT":0.00032328,"MEAN_MOTION_DDOT":0},{"OBJECT_NAME":"STARLINK-1922","OBJECT_ID":"2020-074Q","EPOCH":"2025-11-21T04:00:01.998720","MEAN_MOTION":15.37397362,"ECCENTRICITY":0.000407,"INCLINATION":53.0542,"RA_OF_ASC_NODE":84.258,"ARG_OF_PERICENTER":341.2681,"MEAN_ANOMALY":75.6629,"EPHEMERIS_TYPE":0,"CLASSIFICATION_TYPE":"U","NORAD_CAT_ID":46753,"ELEMENT_SET_NO":999,"REV_AT_EPOCH":578,"BSTAR":0.0038034,"MEAN_MOTION_DOT":0.0014384,"MEAN_MOTION_DDOT":0}]
